{
  "type": "FeatureCollection",
  "features": [
    {
      "type": "Feature",
      "properties": {
        "norad_id": 66927,
        "name": "STARLINK-35943",
        "group": "last-30-days",
        "lat": -28.118698142854374,
        "lon": -44.48025510210561,
        "alt_km": 413.15823704211107,
        "timestamp": "2025-12-27T02:10:14.909135+00:00",
        "meta_object_name": "STARLINK-35943",
        "meta_object_id": "2025-286C",
        "meta_epoch": "2025-12-26T20:00:01.999008",
        "meta_mean_motion": 15.53862781,
        "meta_eccentricity": 0.00013,
        "meta_inclination": 53.1591,
        "meta_ra_of_asc_node": 340.3751,
        "meta_arg_of_pericenter": 104.2527,
        "meta_mean_anomaly": 221.2991,
        "meta_ephemeris_type": 0,
        "meta_classification_type": "U",
        "meta_norad_cat_id": 66927,
        "meta_element_set_no": 999,
        "meta_rev_at_epoch": 425,
        "meta_bstar": -0.034163,
        "meta_mean_motion_dot": -0.02000844,
        "meta_mean_motion_ddot": 0,
        "tle_line1": "1 66927U 25286C   25360.83335647 -.02000844  00000+0 -34163-1 0  9995",
        "tle_line2": "2 66927  53.1591 340.3751 0001300 104.2527 221.2991 15.53862781  4257"
      },
      "geometry": {
        "type": "Point",
        "coordinates": [
          -44.48025510210561,
          -28.118698142854374
        ]
      }
    },
    {
      "type": "Feature",
      "properties": {
        "norad_id": 66928,
        "name": "STARLINK-35944",
        "group": "last-30-days",
        "lat": -30.892227579157694,
        "lon": -47.5072188788687,
        "alt_km": 413.34972154887964,
        "timestamp": "2025-12-27T02:10:14.909145+00:00",
        "meta_object_name": "STARLINK-35944",
        "meta_object_id": "2025-286D",
        "meta_epoch": "2025-12-26T20:00:01.999008",
        "meta_mean_motion": 15.53868328,
        "meta_eccentricity": 0.0001325,
        "meta_inclination": 53.1589,
        "meta_ra_of_asc_node": 340.3824,
        "meta_arg_of_pericenter": 99.3451,
        "meta_mean_anomaly": 222.3714,
        "meta_ephemeris_type": 0,
        "meta_classification_type": "U",
        "meta_norad_cat_id": 66928,
        "meta_element_set_no": 999,
        "meta_rev_at_epoch": 425,
        "meta_bstar": -0.03434,
        "meta_mean_motion_dot": -0.0201049,
        "meta_mean_motion_ddot": 0,
        "tle_line1": "1 66928U 25286D   25360.83335647 -.02010490  00000+0 -34340-1 0  9991",
        "tle_line2": "2 66928  53.1589 340.3824 0001325  99.3451 222.3714 15.53868328  4251"
      },
      "geometry": {
        "type": "Point",
        "coordinates": [
          -47.5072188788687,
          -30.892227579157694
        ]
      }
    },
    {
      "type": "Feature",
      "properties": {
        "norad_id": 66929,
        "name": "STARLINK-36169",
        "group": "last-30-days",
        "lat": -26.707384282706933,
        "lon": -43.02636730235389,
        "alt_km": 413.13632453159244,
        "timestamp": "2025-12-27T02:10:14.909155+00:00",
        "meta_object_name": "STARLINK-36169",
        "meta_object_id": "2025-286E",
        "meta_epoch": "2025-12-26T20:00:01.999008",
        "meta_mean_motion": 15.53867429,
        "meta_eccentricity": 0.0001408,
        "meta_inclination": 53.1591,
        "meta_ra_of_asc_node": 340.3713,
        "meta_arg_of_pericenter": 108.6518,
        "meta_mean_anomaly": 218.8143,
        "meta_ephemeris_type": 0,
        "meta_classification_type": "U",
        "meta_norad_cat_id": 66929,
        "meta_element_set_no": 999,
        "meta_rev_at_epoch": 425,
        "meta_bstar": -0.03427,
        "meta_mean_motion_dot": -0.02006826,
        "meta_mean_motion_ddot": 0,
        "tle_line1": "1 66929U 25286E   25360.83335647 -.02006826  00000+0 -34270-1 0  9992",
        "tle_line2": "2 66929  53.1591 340.3713 0001408 108.6518 218.8143 15.53867429  4259"
      },
      "geometry": {
        "type": "Point",
        "coordinates": [
          -43.02636730235389,
          -26.707384282706933
        ]
      }
    },
    {
      "type": "Feature",
      "properties": {
        "norad_id": 66930,
        "name": "STARLINK-36206",
        "group": "last-30-days",
        "lat": -25.279600970547445,
        "lon": -41.6073713883545,
        "alt_km": 412.89715506365155,
        "timestamp": "2025-12-27T02:10:14.909168+00:00",
        "meta_object_name": "STARLINK-36206",
        "meta_object_id": "2025-286F",
        "meta_epoch": "2025-12-26T20:00:01.999008",
        "meta_mean_motion": 15.53865477,
        "meta_eccentricity": 0.0001176,
        "meta_inclination": 53.1593,
        "meta_ra_of_asc_node": 340.3664,
        "meta_arg_of_pericenter": 109.769,
        "meta_mean_anomaly": 219.6163,
        "meta_ephemeris_type": 0,
        "meta_classification_type": "U",
        "meta_norad_cat_id": 66930,
        "meta_element_set_no": 999,
        "meta_rev_at_epoch": 425,
        "meta_bstar": -0.034252,
        "meta_mean_motion_dot": -0.02005607,
        "meta_mean_motion_ddot": 0,
        "tle_line1": "1 66930U 25286F   25360.83335647 -.02005607  00000+0 -34252-1 0  9990",
        "tle_line2": "2 66930  53.1593 340.3664 0001176 109.7690 219.6163 15.53865477  4255"
      },
      "geometry": {
        "type": "Point",
        "coordinates": [
          -41.6073713883545,
          -25.279600970547445
        ]
      }
    },
    {
      "type": "Feature",
      "properties": {
        "norad_id": 66931,
        "name": "STARLINK-36130",
        "group": "last-30-days",
        "lat": -23.817943987750454,
        "lon": -40.20044233940903,
        "alt_km": 412.8870856313506,
        "timestamp": "2025-12-27T02:10:14.909178+00:00",
        "meta_object_name": "STARLINK-36130",
        "meta_object_id": "2025-286G",
        "meta_epoch": "2025-12-26T20:00:01.999008",
        "meta_mean_motion": 15.53874483,
        "meta_eccentricity": 0.0001238,
        "meta_inclination": 53.1594,
        "meta_ra_of_asc_node": 340.3633,
        "meta_arg_of_pericenter": 111.3757,
        "meta_mean_anomaly": 219.9639,
        "meta_ephemeris_type": 0,
        "meta_classification_type": "U",
        "meta_norad_cat_id": 66931,
        "meta_element_set_no": 999,
        "meta_rev_at_epoch": 425,
        "meta_bstar": -0.035287,
        "meta_mean_motion_dot": -0.02060263,
        "meta_mean_motion_ddot": 0,
        "tle_line1": "1 66931U 25286G   25360.83335647 -.02060263  00000+0 -35287-1 0  9999",
        "tle_line2": "2 66931  53.1594 340.3633 0001238 111.3757 219.9639 15.53874483  4253"
      },
      "geometry": {
        "type": "Point",
        "coordinates": [
          -40.20044233940903,
          -23.817943987750454
        ]
      }
    },
    {
      "type": "Feature",
      "properties": {
        "norad_id": 66932,
        "name": "STARLINK-36177",
        "group": "last-30-days",
        "lat": -22.39004808255365,
        "lon": -38.869796237601854,
        "alt_km": 412.6672279282493,
        "timestamp": "2025-12-27T02:10:14.909190+00:00",
        "meta_object_name": "STARLINK-36177",
        "meta_object_id": "2025-286H",
        "meta_epoch": "2025-12-26T20:00:01.999008",
        "meta_mean_motion": 15.53860163,
        "meta_eccentricity": 0.0001242,
        "meta_inclination": 53.1593,
        "meta_ra_of_asc_node": 340.3583,
        "meta_arg_of_pericenter": 109.1757,
        "meta_mean_anomaly": 224.0449,
        "meta_ephemeris_type": 0,
        "meta_classification_type": "U",
        "meta_norad_cat_id": 66932,
        "meta_element_set_no": 999,
        "meta_rev_at_epoch": 425,
        "meta_bstar": -0.034113,
        "meta_mean_motion_dot": -0.01998011,
        "meta_mean_motion_ddot": 0,
        "tle_line1": "1 66932U 25286H   25360.83335647 -.01998011  00000+0 -34113-1 0  9997",
        "tle_line2": "2 66932  53.1593 340.3583 0001242 109.1757 224.0449 15.53860163  4253"
      },
      "geometry": {
        "type": "Point",
        "coordinates": [
          -38.869796237601854,
          -22.39004808255365
        ]
      }
    },
    {
      "type": "Feature",
      "properties": {
        "norad_id": 66933,
        "name": "STARLINK-36157",
        "group": "last-30-days",
        "lat": -20.93038875288216,
        "lon": -37.54593080173416,
        "alt_km": 412.4554676167709,
        "timestamp": "2025-12-27T02:10:14.909200+00:00",
        "meta_object_name": "STARLINK-36157",
        "meta_object_id": "2025-286J",
        "meta_epoch": "2025-12-26T20:00:01.999008",
        "meta_mean_motion": 15.5386512,
        "meta_eccentricity": 0.0001343,
        "meta_inclination": 53.1595,
        "meta_ra_of_asc_node": 340.3547,
        "meta_arg_of_pericenter": 98.4576,
        "meta_mean_anomaly": 236.6756,
        "meta_ephemeris_type": 0,
        "meta_classification_type": "U",
        "meta_norad_cat_id": 66933,
        "meta_element_set_no": 999,
        "meta_rev_at_epoch": 425,
        "meta_bstar": -0.034223,
        "meta_mean_motion_dot": -0.02004153,
        "meta_mean_motion_ddot": 0,
        "tle_line1": "1 66933U 25286J   25360.83335647 -.02004153  00000+0 -34223-1 0  9996",
        "tle_line2": "2 66933  53.1595 340.3547 0001343  98.4576 236.6756 15.53865120  4255"
      },
      "geometry": {
        "type": "Point",
        "coordinates": [
          -37.54593080173416,
          -20.93038875288216
        ]
      }
    }
  ]
}